STARLINK-36648          
1 67825U 26033E   26070.83784502  .00339276  00000+0  15423-2 0  9990
2 67825  42.9986 258.3200 0003069 308.2894  51.7702 15.82140964  4961
STARLINK-35865          
1 67826U 26033F   26070.58456529  .00499249  00000+0  22353-2 0  9995
2 67826  42.9984 259.8588 0004469 297.1645  62.8771 15.82053400  4923
STARLINK-36289          
1 67827U 26033G   26070.83335647 -.01912670  00000+0 -13293-1 0  9994
2 67827  42.9992 258.3568 0001652 271.6790  59.2434 15.76722654  5007
STARLINK-36670          
1 67828U 26033H   26069.88860328  .00529095  00000+0  23515-2 0  9998
2 67828  42.9984 264.1031 0002069 319.1211  40.9505 15.82137911  4815
STARLINK-36144          
1 67829U 26033J   26070.01418969 -.00462674  00000+0 -23805-2 0  9999
2 67829  42.9976 263.3234 0003478 278.2148  81.8329 15.81396851  4831
STARLINK-36611          
1 67830U 26033K   26070.83335647 -.01922362  00000+0 -11702-1 0  9990
2 67830  42.9991 258.3002 0001534 277.8237  75.5747 15.79646665  5004
STARLINK-36661          
1 67831U 26033L   26070.70633738  .00414164  00000+0  18783-2 0  9999
2 67831  42.9979 259.0496 0001693 272.6355  87.4323 15.81999167  4941
STARLINK-36662          
1 67832U 26033M   26070.83100186  .01828840  00000+0  64925-2 0  9990
2 67832  42.9962 257.3520 0008461 300.5381  59.4656 15.85414116  4974
STARLINK-36659          
1 67833U 26033N   26069.88560167  .00548655  00000+0  24307-2 0  9995
2 67833  42.9978 264.0779 0001992 269.6927  90.3717 15.82155791  4819
STARLINK-36655          
1 67834U 26033P   26070.83335647 -.01916459  00000+0 -11657-1 0  9993
2 67834  42.9991 258.2680 0001554 280.6135  85.6386 15.79654059  5007
STARLINK-36657          
1 67835U 26033Q   26069.88396311  .00995188  00000+0  40248-2 0  9994
2 67835  42.9975 264.0647 0003179 271.1022  88.9486 15.82980376  4816
STARLINK-36650          
1 67836U 26033R   26070.83335647 -.01910987  00000+0 -14140-1 0  9995
2 67836  42.9993 258.2890 0001541 273.8395  84.0142 15.75318768  5005
