CCSDS_OMM_VERS = 2.0
CREATION_DATE  = 
ORIGINATOR     = 

OBJECT_NAME    = STARLINK-36648
OBJECT_ID      = 2026-033E
CENTER_NAME    = EARTH
REF_FRAME      = TEME
TIME_SYSTEM    = UTC
MEAN_ELEMENT_THEORY = SGP/SGP4

EPOCH          = 2026-03-11T20:06:29.809728
MEAN_MOTION    = 15.82140964
ECCENTRICITY   = .0003069
INCLINATION    = 42.9986
RA_OF_ASC_NODE = 258.3200
ARG_OF_PERICENTER = 308.2894
MEAN_ANOMALY   = 51.7702

EPHEMERIS_TYPE = 0
CLASSIFICATION_TYPE = U
NORAD_CAT_ID   = 67825
ELEMENT_SET_NO = 999
REV_AT_EPOCH   = 496
BSTAR          = .15423E-2
MEAN_MOTION_DOT = .339276E-2
MEAN_MOTION_DDOT = 0

CCSDS_OMM_VERS = 2.0
CREATION_DATE  = 
ORIGINATOR     = 

OBJECT_NAME    = STARLINK-35865
OBJECT_ID      = 2026-033F
CENTER_NAME    = EARTH
REF_FRAME      = TEME
TIME_SYSTEM    = UTC
MEAN_ELEMENT_THEORY = SGP/SGP4

EPOCH          = 2026-03-11T14:01:46.441056
MEAN_MOTION    = 15.82053400
ECCENTRICITY   = .0004469
INCLINATION    = 42.9984
RA_OF_ASC_NODE = 259.8588
ARG_OF_PERICENTER = 297.1645
MEAN_ANOMALY   = 62.8771

EPHEMERIS_TYPE = 0
CLASSIFICATION_TYPE = U
NORAD_CAT_ID   = 67826
ELEMENT_SET_NO = 999
REV_AT_EPOCH   = 492
BSTAR          = .22353E-2
MEAN_MOTION_DOT = .499249E-2
MEAN_MOTION_DDOT = 0

CCSDS_OMM_VERS = 2.0
CREATION_DATE  = 
ORIGINATOR     = 

OBJECT_NAME    = STARLINK-36289
OBJECT_ID      = 2026-033G
CENTER_NAME    = EARTH
REF_FRAME      = TEME
TIME_SYSTEM    = UTC
MEAN_ELEMENT_THEORY = SGP/SGP4

EPOCH          = 2026-03-11T20:00:01.999008
MEAN_MOTION    = 15.76722654
ECCENTRICITY   = .0001652
INCLINATION    = 42.9992
RA_OF_ASC_NODE = 258.3568
ARG_OF_PERICENTER = 271.6790
MEAN_ANOMALY   = 59.2434

EPHEMERIS_TYPE = 0
CLASSIFICATION_TYPE = U
NORAD_CAT_ID   = 67827
ELEMENT_SET_NO = 999
REV_AT_EPOCH   = 500
BSTAR          = -.13293E-1
MEAN_MOTION_DOT = -.191267E-1
MEAN_MOTION_DDOT = 0

CCSDS_OMM_VERS = 2.0
CREATION_DATE  = 
ORIGINATOR     = 

OBJECT_NAME    = STARLINK-36670
OBJECT_ID      = 2026-033H
CENTER_NAME    = EARTH
REF_FRAME      = TEME
TIME_SYSTEM    = UTC
MEAN_ELEMENT_THEORY = SGP/SGP4

EPOCH          = 2026-03-10T21:19:35.323392
MEAN_MOTION    = 15.82137911
ECCENTRICITY   = .0002069
INCLINATION    = 42.9984
RA_OF_ASC_NODE = 264.1031
ARG_OF_PERICENTER = 319.1211
MEAN_ANOMALY   = 40.9505

EPHEMERIS_TYPE = 0
CLASSIFICATION_TYPE = U
NORAD_CAT_ID   = 67828
ELEMENT_SET_NO = 999
REV_AT_EPOCH   = 481
BSTAR          = .23515E-2
MEAN_MOTION_DOT = .529095E-2
MEAN_MOTION_DDOT = 0

CCSDS_OMM_VERS = 2.0
CREATION_DATE  = 
ORIGINATOR     = 

OBJECT_NAME    = STARLINK-36144
OBJECT_ID      = 2026-033J
CENTER_NAME    = EARTH
REF_FRAME      = TEME
TIME_SYSTEM    = UTC
MEAN_ELEMENT_THEORY = SGP/SGP4

EPOCH          = 2026-03-11T00:20:25.989216
MEAN_MOTION    = 15.81396851
ECCENTRICITY   = .00034781
INCLINATION    = 42.9976
RA_OF_ASC_NODE = 263.3234
ARG_OF_PERICENTER = 278.2148
MEAN_ANOMALY   = 81.8329

EPHEMERIS_TYPE = 0
CLASSIFICATION_TYPE = U
NORAD_CAT_ID   = 67829
ELEMENT_SET_NO = 999
REV_AT_EPOCH   = 483
BSTAR          = -.23805274E-2
MEAN_MOTION_DOT = -.462674E-2
MEAN_MOTION_DDOT = 0

CCSDS_OMM_VERS = 2.0
CREATION_DATE  = 
ORIGINATOR     = 

OBJECT_NAME    = STARLINK-36611
OBJECT_ID      = 2026-033K
CENTER_NAME    = EARTH
REF_FRAME      = TEME
TIME_SYSTEM    = UTC
MEAN_ELEMENT_THEORY = SGP/SGP4

EPOCH          = 2026-03-11T20:00:01.999008
MEAN_MOTION    = 15.79646665
ECCENTRICITY   = .0001534
INCLINATION    = 42.9991
RA_OF_ASC_NODE = 258.3002
ARG_OF_PERICENTER = 277.8237
MEAN_ANOMALY   = 75.5747

EPHEMERIS_TYPE = 0
CLASSIFICATION_TYPE = U
NORAD_CAT_ID   = 67830
ELEMENT_SET_NO = 999
REV_AT_EPOCH   = 500
BSTAR          = -.11702E-1
MEAN_MOTION_DOT = -.1922362E-1
MEAN_MOTION_DDOT = 0

CCSDS_OMM_VERS = 2.0
CREATION_DATE  = 
ORIGINATOR     = 

OBJECT_NAME    = STARLINK-36661
OBJECT_ID      = 2026-033L
CENTER_NAME    = EARTH
REF_FRAME      = TEME
TIME_SYSTEM    = UTC
MEAN_ELEMENT_THEORY = SGP/SGP4

EPOCH          = 2026-03-11T16:57:07.549632
MEAN_MOTION    = 15.81999167
ECCENTRICITY   = .0001693
INCLINATION    = 42.9979
RA_OF_ASC_NODE = 259.0496
ARG_OF_PERICENTER = 272.6355
MEAN_ANOMALY   = 87.4323

EPHEMERIS_TYPE = 0
CLASSIFICATION_TYPE = U
NORAD_CAT_ID   = 67831
ELEMENT_SET_NO = 999
REV_AT_EPOCH   = 494
BSTAR          = .18783E-2
MEAN_MOTION_DOT = .414164E-2
MEAN_MOTION_DDOT = 0

CCSDS_OMM_VERS = 2.0
CREATION_DATE  = 
ORIGINATOR     = 

OBJECT_NAME    = STARLINK-36662
OBJECT_ID      = 2026-033M
CENTER_NAME    = EARTH
REF_FRAME      = TEME
TIME_SYSTEM    = UTC
MEAN_ELEMENT_THEORY = SGP/SGP4

EPOCH          = 2026-03-11T19:56:38.560704
MEAN_MOTION    = 15.85414116
ECCENTRICITY   = .0008461
INCLINATION    = 42.9962
RA_OF_ASC_NODE = 257.3520
ARG_OF_PERICENTER = 300.5381
MEAN_ANOMALY   = 59.4656

EPHEMERIS_TYPE = 0
CLASSIFICATION_TYPE = U
NORAD_CAT_ID   = 67832
ELEMENT_SET_NO = 999
REV_AT_EPOCH   = 497
BSTAR          = .64925E-2
MEAN_MOTION_DOT = .182884E-1
MEAN_MOTION_DDOT = 0

CCSDS_OMM_VERS = 2.0
CREATION_DATE  = 
ORIGINATOR     = 

OBJECT_NAME    = STARLINK-36659
OBJECT_ID      = 2026-033N
CENTER_NAME    = EARTH
REF_FRAME      = TEME
TIME_SYSTEM    = UTC
MEAN_ELEMENT_THEORY = SGP/SGP4

EPOCH          = 2026-03-10T21:15:15.984288
MEAN_MOTION    = 15.82155791
ECCENTRICITY   = .0001992
INCLINATION    = 42.9978
RA_OF_ASC_NODE = 264.0779
ARG_OF_PERICENTER = 269.6927
MEAN_ANOMALY   = 90.3717

EPHEMERIS_TYPE = 0
CLASSIFICATION_TYPE = U
NORAD_CAT_ID   = 67833
ELEMENT_SET_NO = 999
REV_AT_EPOCH   = 481
BSTAR          = .24307E-2
MEAN_MOTION_DOT = .548655E-2
MEAN_MOTION_DDOT = 0

CCSDS_OMM_VERS = 2.0
CREATION_DATE  = 
ORIGINATOR     = 

OBJECT_NAME    = STARLINK-36655
OBJECT_ID      = 2026-033P
CENTER_NAME    = EARTH
REF_FRAME      = TEME
TIME_SYSTEM    = UTC
MEAN_ELEMENT_THEORY = SGP/SGP4

EPOCH          = 2026-03-11T20:00:01.999008
MEAN_MOTION    = 15.79654059
ECCENTRICITY   = .0001554
INCLINATION    = 42.9991
RA_OF_ASC_NODE = 258.2680
ARG_OF_PERICENTER = 280.6135
MEAN_ANOMALY   = 85.6386

EPHEMERIS_TYPE = 0
CLASSIFICATION_TYPE = U
NORAD_CAT_ID   = 67834
ELEMENT_SET_NO = 999
REV_AT_EPOCH   = 500
BSTAR          = -.11657E-1
MEAN_MOTION_DOT = -.1916459E-1
MEAN_MOTION_DDOT = 0

CCSDS_OMM_VERS = 2.0
CREATION_DATE  = 
ORIGINATOR     = 

OBJECT_NAME    = STARLINK-36657
OBJECT_ID      = 2026-033Q
CENTER_NAME    = EARTH
REF_FRAME      = TEME
TIME_SYSTEM    = UTC
MEAN_ELEMENT_THEORY = SGP/SGP4

EPOCH          = 2026-03-10T21:12:54.412704
MEAN_MOTION    = 15.82980376
ECCENTRICITY   = .0003179
INCLINATION    = 42.9975
RA_OF_ASC_NODE = 264.0647
ARG_OF_PERICENTER = 271.1022
MEAN_ANOMALY   = 88.9486

EPHEMERIS_TYPE = 0
CLASSIFICATION_TYPE = U
NORAD_CAT_ID   = 67835
ELEMENT_SET_NO = 999
REV_AT_EPOCH   = 481
BSTAR          = .40248E-2
MEAN_MOTION_DOT = .995188E-2
MEAN_MOTION_DDOT = 0

CCSDS_OMM_VERS = 2.0
CREATION_DATE  = 
ORIGINATOR     = 

OBJECT_NAME    = STARLINK-36650
OBJECT_ID      = 2026-033R
CENTER_NAME    = EARTH
REF_FRAME      = TEME
TIME_SYSTEM    = UTC
MEAN_ELEMENT_THEORY = SGP/SGP4

EPOCH          = 2026-03-11T20:00:01.999008
MEAN_MOTION    = 15.75318768
ECCENTRICITY   = .0001541
INCLINATION    = 42.9993
RA_OF_ASC_NODE = 258.2890
ARG_OF_PERICENTER = 273.8395
MEAN_ANOMALY   = 84.0142

EPHEMERIS_TYPE = 0
CLASSIFICATION_TYPE = U
NORAD_CAT_ID   = 67836
ELEMENT_SET_NO = 999
REV_AT_EPOCH   = 500
BSTAR          = -.1414E-1
MEAN_MOTION_DOT = -.1910987E-1
MEAN_MOTION_DDOT = 0

